QIANFAN-17              
1 60395U 24140S   25224.52682932  .00000145  00000+0  20551-3 0  9991
2 60395  88.9852 312.0579 0014979 190.8166 169.2665 13.50963396 51638
QIANFAN-18              
1 60396U 24140T   25224.58043108  .00000136  00000+0  19136-3 0  9991
2 60396  88.9843 311.5955 0014963 173.4920 186.6428 13.50965299 51037
QIANFAN-19              
1 61552U 24185A   25224.60137251  .00000332  00000+0  16705-3 0  9998
2 61552  88.9790  91.9568 0006882 356.5589   3.5549 14.14123014 52403
QIANFAN-20              
1 61553U 24185B   25224.58790709  .00000330  00000+0  18366-3 0  9992
2 61553  88.9789  92.1589 0007365  31.9481 328.2148 14.08673872 52294
QIANFAN-21              
1 61554U 24185C   25224.56205960  .00000568  00000+0  24854-3 0  9993
2 61554  88.9704  91.3098 0012609  47.9155 312.3106 14.22373401 52604
QIANFAN-22              
1 61555U 24185D   25224.58830630  .00000261  00000+0  21463-3 0  9997
2 61555  88.9776  92.6484 0007713  24.0573 336.0956 13.86240837 52013
QIANFAN-23              
1 61556U 24185E   25224.60685664  .00000396  00000+0  19333-3 0  9998
2 61556  88.9783  91.8224 0008203   6.7404 353.3893 14.16095187 52461
QIANFAN-24              
1 61557U 24185F   25224.59765932  .00000490  00000+0  20874-3 0  9991
2 61557  88.9763  91.4284 0009276 351.6186   8.4849 14.23574440 52643
